[{"OBJECT_NAME":"RROCI-2","OBJECT_ID":"2024-043J","EPOCH":"2026-03-09T21:40:56.693280","MEAN_MOTION":14.99383357,"ECCENTRICITY":0.00054118,"INCLINATION":97.8279,"RA_OF_ASC_NODE":200.9973,"ARG_OF_PERICENTER":337.3784,"MEAN_ANOMALY":22.7199,"EPHEMERIS_TYPE":0,"CLASSIFICATION_TYPE":"U","NORAD_CAT_ID":59106,"ELEMENT_SET_NO":999,"REV_AT_EPOCH":10988,"BSTAR":0.00035067832,"MEAN_MOTION_DOT":4.232e-5,"MEAN_MOTION_DDOT":0},{"OBJECT_NAME":"STARLINK-36268","OBJECT_ID":"2025-304H","EPOCH":"2026-03-09T15:12:11.621376","MEAN_MOTION":14.98330189,"ECCENTRICITY":0.00032616,"INCLINATION":70.0018,"RA_OF_ASC_NODE":174.6997,"ARG_OF_PERICENTER":271.9396,"MEAN_ANOMALY":88.1389,"EPHEMERIS_TYPE":0,"CLASSIFICATION_TYPE":"U","NORAD_CAT_ID":67199,"ELEMENT_SET_NO":999,"REV_AT_EPOCH":1387,"BSTAR":0.00034070806,"MEAN_MOTION_DOT":3.975e-5,"MEAN_MOTION_DDOT":0}]
